[{"OBJECT_NAME":"OBJECT A","OBJECT_ID":"2023-081A","EPOCH":"2026-03-09T22:51:43.391520","MEAN_MOTION":15.22207712,"ECCENTRICITY":0.0001697,"INCLINATION":97.3786,"RA_OF_ASC_NODE":140.8885,"ARG_OF_PERICENTER":111.1602,"MEAN_ANOMALY":248.9816,"EPHEMERIS_TYPE":0,"CLASSIFICATION_TYPE":"U","NORAD_CAT_ID":56846,"ELEMENT_SET_NO":999,"REV_AT_EPOCH":15291,"BSTAR":0.00017652669,"MEAN_MOTION_DOT":3.986e-5,"MEAN_MOTION_DDOT":0},{"OBJECT_NAME":"OBJECT D","OBJECT_ID":"2024-105D","EPOCH":"2026-03-10T00:24:43.734240","MEAN_MOTION":15.21426907,"ECCENTRICITY":0.00113854,"INCLINATION":97.5907,"RA_OF_ASC_NODE":87.0934,"ARG_OF_PERICENTER":197.271,"MEAN_ANOMALY":162.8139,"EPHEMERIS_TYPE":0,"CLASSIFICATION_TYPE":"U","NORAD_CAT_ID":59920,"ELEMENT_SET_NO":999,"REV_AT_EPOCH":9817,"BSTAR":0.0003392179,"MEAN_MOTION_DOT":7.559e-5,"MEAN_MOTION_DDOT":0}]
